SL-12 R/B(2)            
1 15772U 85042D   26192.98773198 -.00000039  00000+0  38257-5 0  9995
2 15772  71.1064 185.1181 0037235 290.8828  99.3792 14.22010577132065
SL-14 R/B               
1 15945U 85069B   26193.20955998  .00000231  00000+0  23230-4 0  9999
2 15945  82.5265 267.8343 0019868 136.6030 223.6755 14.86533917191332
SL-16 R/B               
1 16182U 85097B   26193.11689877 -.00000066  00000+0 -88506-5 0  9990
2 16182  71.0009 238.5939 0005514  57.8246 332.0642 14.16612184104855
SL-14 R/B               
1 16496U 86006B   26192.88274698  .00000257  00000+0  24549-4 0  9999
2 16496  82.5281 142.8742 0075222 219.9848 139.5817 14.86966798167665
COSMOS 1743             
1 16719U 86034A   26192.77873062  .00036677  00000+0  31279-3 0  9998
2 16719  82.5282 302.5411 0005298 186.5765 173.5428 15.69339007199643
SL-14 R/B               
1 16792U 86046B   26192.80335836  .00000244  00000+0  25163-4 0  9995
2 16792  82.4837 322.9150 0023228 174.0870 186.0625 14.85688965144833
SL-14 R/B               
1 16882U 86055B   26192.87316404  .00000244  00000+0  25262-4 0  9992
2 16882  82.5201   9.9200 0017328 282.3058 198.0232 14.85738979137809
AJISAI (EGS)            
1 16908U 86061A   26193.20054093 -.00000101  00000+0 -25190-4 0  9993
2 16908  50.0099  70.4801 0011094 244.2552 227.0080 12.44516662483504
SL-14 R/B               
1 17567U 87024B   26192.99362082  .00000256  00000+0  26268-4 0  9996
2 17567  82.5294 335.9328 0017549 204.6710 155.3669 14.86230287106594
COSMOS 1833             
1 17589U 87027A   26192.81375237  .00000118  00000+0  88850-4 0  9992
2 17589  70.9211  65.1077 0024008  14.1554 346.0235 14.13065553 27850
SL-16 R/B               
1 17590U 87027B   26192.84997314 -.00000119  00000+0 -34985-4 0  9996
2 17590  71.0030  14.8558 0007137 285.3527  74.6808 14.17173183 32932
SL-14 R/B               
1 17912U 87038B   26192.44635368  .00000255  00000+0  26589-4 0  9990
2 17912  82.5009 180.2209 0020721 113.7273 246.6120 14.85459955 97602
COSMOS 1844             
1 17973U 87041A   26192.85692937  .00000173  00000+0  11483-3 0  9996
2 17973  70.8996 132.2708 0031539 200.0273 159.9613 14.14579368 21146
SL-14 R/B               
1 18153U 87055B   26193.07488120  .00000208  00000+0  21137-4 0  9991
2 18153  82.4974 231.7673 0019629 325.9754  34.0202 14.85725928 88407
COSMOS 1867             
1 18187U 87060A   26192.72425201 -.00000078  00000+0  83140-5 0  9995
2 18187  65.0120 319.3403 0017070 282.0225  77.8946 14.31518264 37691
SL-14 R/B               
1 18749U 88001B   26193.14602514  .00000214  00000+0  21870-4 0  9998
2 18749  82.5124  78.2920 0017903 181.8420 178.2733 14.85625592 60504
COSMOS 1933             
1 18958U 88020A   26192.87568202  .00002092  00000+0  98853-4 0  9996
2 18958  82.5138 127.9851 0005746 116.0732 244.1094 15.18877042 69074
SL-3 R/B                
1 19046U 88032B   26193.11226792  .00002446  00000+0  11253-3 0  9992
2 19046  97.5268 176.1323 0026223 156.0765 204.1696 15.21017674 71018
SL-16 R/B               
1 19120U 88039B   26192.35981286 -.00000184  00000+0 -64358-4 0  9997
2 19120  71.0136 167.0445 0020800 155.6640 204.5472 14.19631645975934
COSMOS 1953             
1 19210U 88050A   26192.60744659  .00004478  00000+0  15134-3 0  9994
2 19210  82.5062  33.4006 0011791  51.5057 308.7239 15.30305195 56720
SL-8 R/B                
1 19257U 88053B   26192.62663785  .00000120  00000+0  47256-4 0  9991
2 19257  74.0461 244.0075 0019605  30.7363  83.3668 14.38977093994426
COSMOS 1975             
1 19573U 88093A   26192.88446947  .00003833  00000+0  13202-3 0  9990
2 19573  82.5192 352.8513 0012557  92.6562 267.6116 15.29637025 38382
SL-14 R/B               
1 19574U 88093B   26192.79870968  .00000199  00000+0  20027-4 0  9991
2 19574  82.5317 285.5403 0020313 351.7863 130.4842 14.85758797 19444
SL-16 R/B               
1 19650U 88102B   26193.15105383 -.00000231  00000+0 -92585-4 0  9997
2 19650  70.9982 249.6127 0014482 190.3323 169.7505 14.16167403944518
INTERCOSMOS 24          
1 20261U 89080A   26193.03336603  .00000246  00000+0  67834-4 0  9994
2 20261  82.6047  23.4731 1187371   4.2840 356.7394 12.59690954682458
SL-14 R/B               
1 20262U 89080C   26193.12236119  .00000055  00000+0  15957-4 0  9993
2 20262  82.5937  93.2868 1228594 260.3235  85.7278 12.50578093675708
DELTA 1 R/B             
1 20323U 89089B   26192.98040000  .00000160  00000+0  48052-4 0  9994
2 20323  97.0634  20.5709 0070649  89.9074 271.0219 14.50746629913758
ARIANE 40 R/B           
1 20443U 90005H   26193.12987991  .00000109  00000+0  47928-4 0  9997
2 20443  98.2947 249.9687 0010061 183.0738 177.0390 14.39939873910718
DELTA 2 R/B(1)          
1 20453U 90008B   26192.97565387  .00079208  00000+0  49290-3 0  9993
2 20453  35.6004  69.3143 0060492 345.6004  14.3014 15.73093935945605
COSMOS 2058             
1 20465U 90010A   26193.21599983  .00001420  00000+0  80663-4 0  9997
2 20465  82.4673 284.6708 0007799 262.3168  97.7176 15.12146879961056
